[{"OBJECT_NAME":"YUNHAI-2 01D","OBJECT_ID":"2018-112D","EPOCH":"2026-03-09T23:06:26.804736","MEAN_MOTION":14.28986233,"ECCENTRICITY":0.00157828,"INCLINATION":50.0122,"RA_OF_ASC_NODE":348.6213,"ARG_OF_PERICENTER":356.8631,"MEAN_ANOMALY":3.2183,"EPHEMERIS_TYPE":0,"CLASSIFICATION_TYPE":"U","NORAD_CAT_ID":43912,"ELEMENT_SET_NO":999,"REV_AT_EPOCH":37339,"BSTAR":0.00013763161,"MEAN_MOTION_DOT":1.89e-6,"MEAN_MOTION_DDOT":0},{"OBJECT_NAME":"COSMOS 1275 DEB","OBJECT_ID":"1981-053HX","EPOCH":"2026-03-09T05:47:15.604512","MEAN_MOTION":14.24802387,"ECCENTRICITY":0.00253211,"INCLINATION":82.7805,"RA_OF_ASC_NODE":356.9445,"ARG_OF_PERICENTER":163.5175,"MEAN_ANOMALY":196.6838,"EPHEMERIS_TYPE":0,"CLASSIFICATION_TYPE":"U","NORAD_CAT_ID":14364,"ELEMENT_SET_NO":999,"REV_AT_EPOCH":21337,"BSTAR":0.0018922764,"MEAN_MOTION_DOT":4.442e-5,"MEAN_MOTION_DDOT":0}]
